COSMOS 1629             
1 15574U 85016A   26065.40398934  .00000056  00000+0  00000+0 0  9990
2 15574   9.3154 315.1547 0006644 272.3618 265.6981  1.00272899149426
GSTAR 1                 
1 15677U 85035A   26065.27563543 -.00000116  00000+0  00000+0 0  9998
2 15677  14.3607 349.5006 0002522  84.0935  84.5562  1.00272567124171
TELECOM 1B              
1 15678U 85035B   26065.13887483 -.00000276  00000+0  00000+0 0  9993
2 15678  10.3037 321.5733 0004726 344.5553 192.9512  1.00372782135980
ARABSAT-1B              
1 15825U 85048C   26065.80594340  .00000054  00000+0  00000+0 0  9995
2 15825  12.4874 334.8288 0017294  14.3430 157.7509  1.00434366134406
TELSTAR 303             
1 15826U 85048D   26065.57267113 -.00000004  00000+0  00000+0 0  9991
2 15826  14.2507 347.0470 0004387 283.9788 285.4192  0.99883491 45477
INTELSAT 511            
1 15873U 85055A   26065.37163324  .00000063  00000+0  00000+0 0  9992
2 15873  13.2848 339.4911 0010877  79.2782  70.3539  1.00105999123489
RADUGA 16               
1 15946U 85070A   26065.47363094  .00000079  00000+0  00000+0 0  9994
2 15946   9.5929 317.4658 0002921 320.4346 245.4970  1.00257980121198
OPTUS A1 (AUSSAT 1)     
1 15993U 85076B   26065.07595455 -.00000283  00000+0  00000+0 0  9994
2 15993  13.3799 339.5874 0004489 352.9880 185.8988  0.99767382118569
ASC 1                   
1 15994U 85076C   26065.34470907 -.00000053  00000+0  00000+0 0  9994
2 15994  13.8676 344.1046 0002259  22.5739 165.7212  1.00310419116943
COSMOS 1700             
1 16199U 85102A   26064.73903541 -.00000037  00000+0  00000+0 0  9991
2 16199   9.8845 319.4987 0004224 259.7853 276.9099  1.00312564150633
SL-12 R/B(2)            
1 16214U 85102D   26065.40476934  .00000101  00000+0  00000+0 0  9996
2 16214   9.6215 318.6536 0018651 154.8937  23.3696  1.00618395123816
RADUGA 17               
1 16250U 85107A   26065.74766807 -.00000362  00000+0  00000+0 0  9999
2 16250   9.7798 318.9972 0012501 239.3672   3.6577  1.00165470150644
OPTUS A2 (AUSSAT 2)     
1 16275U 85109C   26065.40849602  .00000093  00000+0  00000+0 0  9996
2 16275  13.4423 340.8718 0006337 319.5316 216.9402  0.99945452 45503
STTW-1                  
1 16526U 86010A   26065.51358387 -.00000312  00000+0  00000+0 0  9999
2 16526  10.7624 324.2116 0003959 313.7233 170.8667  1.00243455154435
GSTAR 2                 
1 16649U 86026A   26059.02167960 -.00000091  00000+0  00000+0 0  9990
2 16649  14.2559 346.6730 0003447  12.6884 170.3094  0.99801836115555
COSMOS 1738             
1 16667U 86027A   26064.98725515 -.00000061  00000+0  00000+0 0  9995
2 16667  10.4355 318.5108 0011593 135.4271  60.7567  1.00259947146317
GORIZONT 12             
1 16769U 86044A   26064.74284875 -.00000227  00000+0  00000+0 0  9994
2 16769  10.2144 321.7885 0005365 321.8402 233.3255  1.00343574146221
