[{"OBJECT_NAME":"COSMOS 1629","OBJECT_ID":"1985-016A","EPOCH":"2026-03-06T09:41:44.678976","MEAN_MOTION":1.00272899,"ECCENTRICITY":0.00066446,"INCLINATION":9.3154,"RA_OF_ASC_NODE":315.1547,"ARG_OF_PERICENTER":272.3618,"MEAN_ANOMALY":265.6981,"EPHEMERIS_TYPE":0,"CLASSIFICATION_TYPE":"U","NORAD_CAT_ID":15574,"ELEMENT_SET_NO":999,"REV_AT_EPOCH":14942,"BSTAR":0,"MEAN_MOTION_DOT":5.6e-7,"MEAN_MOTION_DDOT":0},{"OBJECT_NAME":"GSTAR 1","OBJECT_ID":"1985-035A","EPOCH":"2026-03-06T06:36:54.901152","MEAN_MOTION":1.00272567,"ECCENTRICITY":0.00025223,"INCLINATION":14.3607,"RA_OF_ASC_NODE":349.5006,"ARG_OF_PERICENTER":84.0935,"MEAN_ANOMALY":84.5562,"EPHEMERIS_TYPE":0,"CLASSIFICATION_TYPE":"U","NORAD_CAT_ID":15677,"ELEMENT_SET_NO":999,"REV_AT_EPOCH":12417,"BSTAR":0,"MEAN_MOTION_DOT":-1.16e-6,"MEAN_MOTION_DDOT":0},{"OBJECT_NAME":"TELECOM 1B","OBJECT_ID":"1985-035B","EPOCH":"2026-03-06T03:19:58.785312","MEAN_MOTION":1.00372782,"ECCENTRICITY":0.00047265,"INCLINATION":10.3037,"RA_OF_ASC_NODE":321.5733,"ARG_OF_PERICENTER":344.5553,"MEAN_ANOMALY":192.9512,"EPHEMERIS_TYPE":0,"CLASSIFICATION_TYPE":"U","NORAD_CAT_ID":15678,"ELEMENT_SET_NO":999,"REV_AT_EPOCH":13598,"BSTAR":0,"MEAN_MOTION_DOT":-2.76e-6,"MEAN_MOTION_DDOT":0},{"OBJECT_NAME":"ARABSAT-1B","OBJECT_ID":"1985-048C","EPOCH":"2026-03-06T19:20:33.509760","MEAN_MOTION":1.00434366,"ECCENTRICITY":0.0017294,"INCLINATION":12.4874,"RA_OF_ASC_NODE":334.8288,"ARG_OF_PERICENTER":14.343,"MEAN_ANOMALY":157.7509,"EPHEMERIS_TYPE":0,"CLASSIFICATION_TYPE":"U","NORAD_CAT_ID":15825,"ELEMENT_SET_NO":999,"REV_AT_EPOCH":13440,"BSTAR":0,"MEAN_MOTION_DOT":5.4e-7,"MEAN_MOTION_DDOT":0},{"OBJECT_NAME":"TELSTAR 303","OBJECT_ID":"1985-048D","EPOCH":"2026-03-06T13:44:38.785632","MEAN_MOTION":0.99883491,"ECCENTRICITY":0.00043874,"INCLINATION":14.2507,"RA_OF_ASC_NODE":347.047,"ARG_OF_PERICENTER":283.9788,"MEAN_ANOMALY":285.4192,"EPHEMERIS_TYPE":0,"CLASSIFICATION_TYPE":"U","NORAD_CAT_ID":15826,"ELEMENT_SET_NO":999,"REV_AT_EPOCH":4547,"BSTAR":0,"MEAN_MOTION_DOT":-4.0e-8,"MEAN_MOTION_DDOT":0},{"OBJECT_NAME":"INTELSAT 511","OBJECT_ID":"1985-055A","EPOCH":"2026-03-06T08:55:09.111936","MEAN_MOTION":1.00105999,"ECCENTRICITY":0.00108776,"INCLINATION":13.2848,"RA_OF_ASC_NODE":339.4911,"ARG_OF_PERICENTER":79.2782,"MEAN_ANOMALY":70.3539,"EPHEMERIS_TYPE":0,"CLASSIFICATION_TYPE":"U","NORAD_CAT_ID":15873,"ELEMENT_SET_NO":999,"REV_AT_EPOCH":12348,"BSTAR":0,"MEAN_MOTION_DOT":6.3e-7,"MEAN_MOTION_DDOT":0},{"OBJECT_NAME":"RADUGA 16","OBJECT_ID":"1985-070A","EPOCH":"2026-03-06T11:22:01.713216","MEAN_MOTION":1.0025798,"ECCENTRICITY":0.00029214,"INCLINATION":9.5929,"RA_OF_ASC_NODE":317.4658,"ARG_OF_PERICENTER":320.4346,"MEAN_ANOMALY":245.497,"EPHEMERIS_TYPE":0,"CLASSIFICATION_TYPE":"U","NORAD_CAT_ID":15946,"ELEMENT_SET_NO":999,"REV_AT_EPOCH":12119,"BSTAR":0,"MEAN_MOTION_DOT":7.9e-7,"MEAN_MOTION_DDOT":0},{"OBJECT_NAME":"OPTUS A1 (AUSSAT 1)","OBJECT_ID":"1985-076B","EPOCH":"2026-03-06T01:49:22.473120","MEAN_MOTION":0.99767382,"ECCENTRICITY":0.00044896,"INCLINATION":13.3799,"RA_OF_ASC_NODE":339.5874,"ARG_OF_PERICENTER":352.988,"MEAN_ANOMALY":185.8988,"EPHEMERIS_TYPE":0,"CLASSIFICATION_TYPE":"U","NORAD_CAT_ID":15993,"ELEMENT_SET_NO":999,"REV_AT_EPOCH":11856,"BSTAR":0,"MEAN_MOTION_DOT":-2.83e-6,"MEAN_MOTION_DDOT":0},{"OBJECT_NAME":"ASC 1","OBJECT_ID":"1985-076C","EPOCH":"2026-03-06T08:16:22.863648","MEAN_MOTION":1.00310419,"ECCENTRICITY":0.00022595,"INCLINATION":13.8676,"RA_OF_ASC_NODE":344.1046,"ARG_OF_PERICENTER":22.5739,"MEAN_ANOMALY":165.7212,"EPHEMERIS_TYPE":0,"CLASSIFICATION_TYPE":"U","NORAD_CAT_ID":15994,"ELEMENT_SET_NO":999,"REV_AT_EPOCH":11694,"BSTAR":0,"MEAN_MOTION_DOT":-5.3e-7,"MEAN_MOTION_DDOT":0},{"OBJECT_NAME":"COSMOS 1700","OBJECT_ID":"1985-102A","EPOCH":"2026-03-05T17:44:12.659424","MEAN_MOTION":1.00312564,"ECCENTRICITY":0.00042247,"INCLINATION":9.8845,"RA_OF_ASC_NODE":319.4987,"ARG_OF_PERICENTER":259.7853,"MEAN_ANOMALY":276.9099,"EPHEMERIS_TYPE":0,"CLASSIFICATION_TYPE":"U","NORAD_CAT_ID":16199,"ELEMENT_SET_NO":999,"REV_AT_EPOCH":15063,"BSTAR":0,"MEAN_MOTION_DOT":-3.7e-7,"MEAN_MOTION_DDOT":0},{"OBJECT_NAME":"SL-12 R/B(2)","OBJECT_ID":"1985-102D","EPOCH":"2026-03-06T09:42:52.070976","MEAN_MOTION":1.00618395,"ECCENTRICITY":0.00186518,"INCLINATION":9.6215,"RA_OF_ASC_NODE":318.6536,"ARG_OF_PERICENTER":154.8937,"MEAN_ANOMALY":23.3696,"EPHEMERIS_TYPE":0,"CLASSIFICATION_TYPE":"U","NORAD_CAT_ID":16214,"ELEMENT_SET_NO":999,"REV_AT_EPOCH":12381,"BSTAR":0,"MEAN_MOTION_DOT":1.01e-6,"MEAN_MOTION_DDOT":0},{"OBJECT_NAME":"RADUGA 17","OBJECT_ID":"1985-107A","EPOCH":"2026-03-06T17:56:38.521248","MEAN_MOTION":1.0016547,"ECCENTRICITY":0.0012501,"INCLINATION":9.7798,"RA_OF_ASC_NODE":318.9972,"ARG_OF_PERICENTER":239.3672,"MEAN_ANOMALY":3.6577,"EPHEMERIS_TYPE":0,"CLASSIFICATION_TYPE":"U","NORAD_CAT_ID":16250,"ELEMENT_SET_NO":999,"REV_AT_EPOCH":15064,"BSTAR":0,"MEAN_MOTION_DOT":-3.62e-6,"MEAN_MOTION_DDOT":0},{"OBJECT_NAME":"OPTUS A2 (AUSSAT 2)","OBJECT_ID":"1985-109C","EPOCH":"2026-03-06T09:48:14.056128","MEAN_MOTION":0.99945452,"ECCENTRICITY":0.00063378,"INCLINATION":13.4423,"RA_OF_ASC_NODE":340.8718,"ARG_OF_PERICENTER":319.5316,"MEAN_ANOMALY":216.9402,"EPHEMERIS_TYPE":0,"CLASSIFICATION_TYPE":"U","NORAD_CAT_ID":16275,"ELEMENT_SET_NO":999,"REV_AT_EPOCH":4550,"BSTAR":0,"MEAN_MOTION_DOT":9.3e-7,"MEAN_MOTION_DDOT":0},{"OBJECT_NAME":"STTW-1","OBJECT_ID":"1986-010A","EPOCH":"2026-03-06T12:19:33.646368","MEAN_MOTION":1.00243455,"ECCENTRICITY":0.00039594,"INCLINATION":10.7624,"RA_OF_ASC_NODE":324.2116,"ARG_OF_PERICENTER":313.7233,"MEAN_ANOMALY":170.8667,"EPHEMERIS_TYPE":0,"CLASSIFICATION_TYPE":"U","NORAD_CAT_ID":16526,"ELEMENT_SET_NO":999,"REV_AT_EPOCH":15443,"BSTAR":0,"MEAN_MOTION_DOT":-3.12e-6,"MEAN_MOTION_DDOT":0},{"OBJECT_NAME":"GSTAR 2","OBJECT_ID":"1986-026A","EPOCH":"2026-02-28T00:31:13.117440","MEAN_MOTION":0.99801836,"ECCENTRICITY":0.00034476,"INCLINATION":14.2559,"RA_OF_ASC_NODE":346.673,"ARG_OF_PERICENTER":12.6884,"MEAN_ANOMALY":170.3094,"EPHEMERIS_TYPE":0,"CLASSIFICATION_TYPE":"U","NORAD_CAT_ID":16649,"ELEMENT_SET_NO":999,"REV_AT_EPOCH":11555,"BSTAR":0,"MEAN_MOTION_DOT":-9.1e-7,"MEAN_MOTION_DDOT":0},{"OBJECT_NAME":"COSMOS 1738","OBJECT_ID":"1986-027A","EPOCH":"2026-03-05T23:41:38.844960","MEAN_MOTION":1.00259947,"ECCENTRICITY":0.00115932,"INCLINATION":10.4355,"RA_OF_ASC_NODE":318.5108,"ARG_OF_PERICENTER":135.4271,"MEAN_ANOMALY":60.7567,"EPHEMERIS_TYPE":0,"CLASSIFICATION_TYPE":"U","NORAD_CAT_ID":16667,"ELEMENT_SET_NO":999,"REV_AT_EPOCH":14631,"BSTAR":0,"MEAN_MOTION_DOT":-6.1e-7,"MEAN_MOTION_DDOT":0},{"OBJECT_NAME":"GORIZONT 12","OBJECT_ID":"1986-044A","EPOCH":"2026-03-05T17:49:42.132000","MEAN_MOTION":1.00343574,"ECCENTRICITY":0.00053656,"INCLINATION":10.2144,"RA_OF_ASC_NODE":321.7885,"ARG_OF_PERICENTER":321.8402,"MEAN_ANOMALY":233.3255,"EPHEMERIS_TYPE":0,"CLASSIFICATION_TYPE":"U","NORAD_CAT_ID":16769,"ELEMENT_SET_NO":999,"REV_AT_EPOCH":14622,"BSTAR":0,"MEAN_MOTION_DOT":-2.27e-6,"MEAN_MOTION_DDOT":0}]
